GLOBALSTAR M068         
1 32266U 07048D   25106.83471804 -.00000084  00000+0  11041-3 0  9999
2 32266  51.9860 129.2790 0000906   8.0011 163.7269 12.62820993809806
GLOBALSTAR M079         
1 37188U 10054A   25106.81356297 -.00000082  00000+0  12155-3 0  9999
2 37188  52.0056 326.6182 0000975 106.0586 334.7880 12.62273179668702
GLOBALSTAR M074         
1 37189U 10054B   25107.01337179 -.00000079  00000+0  13898-3 0  9992
2 37189  52.0035 325.3435 0000655  91.9858  55.8798 12.62274088669403
GLOBALSTAR M076         
1 37190U 10054C   25106.78909113 -.00000071  00000+0  18384-3 0  9997
2 37190  52.0046 326.1885 0000708 112.5570 337.8891 12.62261086669024
GLOBALSTAR M077         
1 37191U 10054D   25106.75919425 -.00000087  00000+0  95239-4 0  9994
2 37191  52.0069 283.1199 0000805 107.0982 265.9395 12.62273374669397
GLOBALSTAR M075         
1 37192U 10054E   25107.04314916 -.00000068  00000+0  20033-3 0  9990
2 37192  51.9977   7.7056 0000651  79.0153  25.7021 12.62263599668657
GLOBALSTAR M073         
1 37193U 10054F   25106.89459558 -.00000082  00000+0  12174-3 0  9998
2 37193  52.0055 281.9333 0000799 112.6423  35.1395 12.62270566670090
GLOBALSTAR M083         
1 37739U 11033A   25106.74923494 -.00000072  00000+0  17527-3 0  9997
2 37739  51.9852 231.1886 0000812 110.9128  36.8343 12.62262859639090
GLOBALSTAR M088         
1 37740U 11033B   25106.56806953 -.00000075  00000+0  16179-3 0  9994
2 37740  51.9709 137.2823 0000325 103.5587  61.4803 12.62265666634613
GLOBALSTAR M091         
1 37741U 11033C   25106.94564465 -.00000106  00000+0 -14253-4 0  9994
2 37741  51.9978  99.5772 0000556  79.1610 301.6568 12.62267094635453
GLOBALSTAR M085         
1 37742U 11033D   25107.02456264 -.00000093  00000+0  58214-4 0  9991
2 37742  51.9878  50.4282 0000694  75.5085   4.2967 12.62267323636460
GLOBALSTAR M081         
1 37743U 11033E   25106.87661672 -.00000108  00000+0 -24912-4 0  9991
2 37743  51.9970  53.6280 0000598  90.9458 276.0178 12.62262682636102
GLOBALSTAR M089         
1 37744U 11033F   25106.93231706 -.00000083  00000+0  11531-3 0  9993
2 37744  51.9963   7.6995 0000439  81.1717 359.5971 12.62268674636959
GLOBALSTAR M084         
1 38040U 11080A   25106.80566088 -.00000078  00000+0  14649-3 0  9992
2 38040  52.0002 235.3409 0000442 141.5073  22.9215 12.62264940614911
GLOBALSTAR M080         
1 38041U 11080B   25106.85250868 -.00000075  00000+0  16195-3 0  9999
2 38041  52.0055 236.7828 0000692 157.3795 340.7476 12.62291913615183
GLOBALSTAR M082         
1 38042U 11080C   25106.71282872 -.00000053  00000+0  28122-3 0  9994
2 38042  52.0066 192.6485 0000715  90.6622  72.0474 12.62265366615736
GLOBALSTAR M092         
1 38043U 11080D   25106.73253714 -.00000061  00000+0  24083-3 0  9991
2 38043  52.0080 282.9617 0000723 101.1234 271.6196 12.62263098614196
GLOBALSTAR M090         
1 38044U 11080E   25106.66057519 -.00000053  00000+0  28215-3 0  9991
2 38044  51.9874 186.6951 0000590 112.2048  52.7144 12.62269321615844
GLOBALSTAR M086         
1 38045U 11080F   25106.68710586 -.00000068  00000+0  20216-3 0  9993
2 38045  51.9887 187.1605 0001210 164.9448   1.0078 12.62269397615799
GLOBALSTAR M097         
1 39072U 13005A   25106.28126239 -.00000118  00000+0 -80460-4 0  9990
2 39072  52.0025 102.8780 0000454 104.7481 255.3436 12.62271738562999
GLOBALSTAR M093         
1 39073U 13005B   25106.96725697 -.00000107  00000+0 -17346-4 0  9990
2 39073  51.9794  94.1884 0000428  95.9402 264.1513 12.62263806563031
GLOBALSTAR M094         
1 39074U 13005C   25106.88822560 -.00000085  00000+0  10225-3 0  9991
2 39074  51.9988   8.7525 0000913  94.7861 265.3110 12.62269704564653
GLOBALSTAR M096         
1 39075U 13005D   25106.90148842 -.00000096  00000+0  45473-4 0  9995
2 39075  52.0082  57.1767 0000718  83.7276 276.3673 12.62270223563550
GLOBALSTAR M078         
1 39076U 13005E   25106.79549293 -.00000097  00000+0  37736-4 0  9992
2 39076  51.9850 142.0935 0001098  58.8402 301.2572 12.62261462562166
GLOBALSTAR M095         
1 39077U 13005F   25106.58455290 -.00000084  00000+0  11293-3 0  9998
2 39077  51.9776 139.9646 0000759  87.9300 272.1654 12.62269221561999
GLOBALSTAR M087         
1 52888U 22064A   25106.85273395 -.00000083  00000+0  11723-3 0  9999
2 52888  51.9787 280.5509 0000940  99.7276 260.3696 12.62270975137297
